NORAD_CAT_ID,OBJECT_NAME,OBJECT_TYPE,EPOCH,MEAN_MOTION,ECCENTRICITY,INCLINATION,RA_OF_ASC_NODE,ARG_OF_PERICENTER,MEAN_ANOMALY,BSTAR,MEAN_MOTION_DOT,MEAN_MOTION_DDOT,TLE_LINE0,TLE_LINE1,TLE_LINE2,SEMIMAJOR_AXIS,PERIOD,APOGEE,PERIGEE,DECAYED
50171.0,STARLINK-3286,PAYLOAD,2024-01-07 13:15:29,15.08840721,0.0001512,53.2156,205.1615,83.8223,276.2942,5.8605e-05,6.45e-06,0.0,0 STARLINK-3286,1 50171U 21125R   24007.55242902  .00000645  00000-0  58605-4 0  9990,2 50171  53.2156 205.1615 0001512  83.8223 276.2942 15.08840721117011,6917.878,95.438,540.789,538.697,0.0
50171.0,STARLINK-3286,PAYLOAD,2024-01-07 19:37:02,15.08831112,0.0001335,53.2154,203.9718,91.1294,268.9851,0.00017928,2.566e-05,0.0,0 STARLINK-3286,1 50171U 21125R   24007.81739014  .00002566  00000-0  17928-3 0  9990,2 50171  53.2154 203.9718 0001335  91.1294 268.9851 15.08831112116562,6917.908,95.438,540.696,538.849,0.0
50171.0,STARLINK-3286,PAYLOAD,2024-01-08 19:27:49,15.08839679,0.0001386,53.2154,199.5108,90.0179,270.0972,3.1107e-05,2.07e-06,0.0,0 STARLINK-3286,1 50171U 21125R   24008.81098987  .00000207  00000-0  31107-4 0  9994,2 50171  53.2154 199.5108 0001386  90.0179 270.0972 15.08839679117207,6917.881,95.438,540.705,538.788,0.0
50171.0,STARLINK-3286,PAYLOAD,2024-01-09 11:21:40,15.08840346,0.0001337,53.2156,196.537,87.3817,272.7329,5.8164e-05,6.38e-06,0.0,0 STARLINK-3286,1 50171U 21125R   24009.47338888  .00000638  00000-0  58164-4 0  9994,2 50171  53.2156 196.5370 0001337  87.3817 272.7329 15.08840346116815,6917.879,95.438,540.669,538.819,0.0
50171.0,STARLINK-3286,PAYLOAD,2024-01-09 17:43:13,15.08841984,0.0001328,53.2157,195.3476,89.0154,271.099,6.8415e-05,8.01e-06,0.0,0 STARLINK-3286,1 50171U 21125R   24009.73834759  .00000801  00000-0  68415-4 0  9993,2 50171  53.2157 195.3476 0001328  89.0154 271.0990 15.08841984117347,6917.874,95.437,540.658,538.821,0.0
50171.0,STARLINK-3286,PAYLOAD,2024-01-09 22:29:22,15.08843073,0.0001329,53.2155,194.4554,92.0126,268.1018,7.4204e-05,8.93e-06,0.0,0 STARLINK-3286,1 50171U 21125R   24009.93706628  .00000893  00000-0  74204-4 0  9992,2 50171  53.2155 194.4554 0001329  92.0126 268.1018 15.08843073117378,6917.871,95.437,540.655,538.817,0.0
50171.0,STARLINK-3286,PAYLOAD,2024-01-10 17:34:00,15.08833514,0.0001367,53.2154,190.8861,102.0427,258.0718,4.3813e-06,-2.18e-06,0.0,0 STARLINK-3286,1 50171U 21125R   24010.73195574 -.00000218  00000-0  43813-5 0  9999,2 50171  53.2154 190.8861 0001367 102.0427 258.0718 15.08833514117000,6917.9,95.438,540.711,538.82,0.0
50171.0,STARLINK-3286,PAYLOAD,2024-01-10 20:44:47,15.08835695,0.0001347,53.2155,190.2915,98.6577,261.4568,2.1154e-05,4.9e-07,0.0,0 STARLINK-3286,1 50171U 21125R   24010.86443454  .00000049  00000-0  21154-4 0  9990,2 50171  53.2155 190.2915 0001347  98.6577 261.4568 15.08835695117518,6917.894,95.438,540.69,538.827,0.0
50171.0,STARLINK-3286,PAYLOAD,2024-01-11 19:00:10,15.08846494,0.0001283,53.2155,186.1282,92.5495,267.5644,8.8725e-05,1.125e-05,0.0,0 STARLINK-3286,1 50171U 21125R   24011.79178623  .00001125  00000-0  88725-4 0  9999,2 50171  53.2155 186.1282 0001283  92.5495 267.5644 15.08846494117162,6917.861,95.437,540.613,538.838,0.0
50171.0,STARLINK-3286,PAYLOAD,2024-01-11 20:35:33,15.08848372,0.0001379,53.2165,185.8304,91.28,268.835,8.5052e-05,1.066e-05,0.0,0 STARLINK-3286,1 50171U 21125R   24011.85802526  .00001066  00000-0  85052-4 0  9996,2 50171  53.2165 185.8304 0001379  91.2800 268.8350 15.08848372117666,6917.855,95.437,540.674,538.766,0.0
50171.0,STARLINK-3286,PAYLOAD,2024-01-12 09:18:39,15.08836409,0.000139,53.2175,183.4496,104.9603,255.1543,6.7689e-05,7.89e-06,0.0,0 STARLINK-3286,1 50171U 21125R   24012.38795370  .00000789  00000-0  67689-4 0  9990,2 50171  53.2175 183.4496 0001390 104.9603 255.1543 15.08836409117255,6917.891,95.438,540.718,538.795,0.0
50171.0,STARLINK-3286,PAYLOAD,2024-01-12 20:26:21,15.08837473,0.0001353,53.2168,181.3683,91.5503,268.5644,6.3685e-05,7.26e-06,0.0,0 STARLINK-3286,1 50171U 21125R   24012.85163403  .00000726  00000-0  63685-4 0  9991,2 50171  53.2168 181.3683 0001353  91.5503 268.5644 15.08837473117815,6917.888,95.438,540.689,538.817,0.0
50171.0,STARLINK-3286,PAYLOAD,2024-01-13 10:44:49,15.08845506,0.0001372,53.2166,178.6924,107.4087,252.7055,-0.00011178,-2.067e-05,0.0,0 STARLINK-3286,1 50171U 21125R   24013.44779668 -.00002067  00000-0 -11178-3 0  9994,2 50171  53.2166 178.6924 0001372 107.4087 252.7055 15.08845506117418,6917.864,95.437,540.678,538.779,0.0
50171.0,STARLINK-3286,PAYLOAD,2024-01-14 13:46:22,15.08841545,0.00013,53.2158,173.6402,86.2465,273.8676,9.9694e-05,1.299e-05,0.0,0 STARLINK-3286,1 50171U 21125R   24014.57387230  .00001299  00000-0  99694-4 0  9993,2 50171  53.2158 173.6402 0001300  86.2465 273.8676 15.08841545117580,6917.876,95.437,540.64,538.841,0.0
50171.0,STARLINK-3286,PAYLOAD,2024-01-14 16:57:08,15.08844103,0.0001335,53.216,173.0457,80.219,279.8953,0.00011974,1.618e-05,0.0,0 STARLINK-3286,1 50171U 21125R   24014.70635061  .00001618  00000-0  11974-3 0  9995,2 50171  53.2160 173.0457 0001335  80.2190 279.8953 15.08844103118098,6917.868,95.437,540.656,538.809,0.0
50171.0,STARLINK-3286,PAYLOAD,2024-01-15 13:37:09,15.0884091,0.0001481,53.2159,169.1813,63.4065,296.7079,5.76e-05,6.29e-06,0.0,0 STARLINK-3286,1 50171U 21125R   24015.56747501  .00000629  00000-0  57600-4 0  9991,2 50171  53.2159 169.1813 0001481  63.4065 296.7079 15.08840910118228,6917.878,95.437,540.767,538.718,0.0
50171.0,STARLINK-3286,PAYLOAD,2024-01-15 16:47:56,15.08841882,0.0001472,53.2159,168.5865,65.03,295.0845,6.27e-05,7.1e-06,0.0,0 STARLINK-3286,1 50171U 21125R   24015.69995396  .00000710  00000-0  62700-4 0  9990,2 50171  53.2159 168.5865 0001472  65.0300 295.0845 15.08841882117757,6917.875,95.437,540.758,538.721,0.0
50171.0,STARLINK-3286,PAYLOAD,2024-01-16 10:17:11,15.08834211,0.000144,53.2178,165.3185,92.5601,267.5556,1.278e-05,-8.5e-07,0.0,0 STARLINK-3286,1 50171U 21125R   24016.42859994 -.00000085  00000-0  12780-4 0  9994,2 50171  53.2178 165.3185 0001440  92.5601 267.5556 15.08834211117865,6917.898,95.438,540.759,538.767,0.0
50171.0,STARLINK-3286,PAYLOAD,2024-01-16 13:27:57,15.08835307,0.0001387,53.2178,164.7223,96.6086,263.5064,-2.0074e-05,-6.07e-06,0.0,0 STARLINK-3286,1 50171U 21125R   24016.56108017 -.00000607  00000-0 -20074-4 0  9998,2 50171  53.2178 164.7223 0001387  96.6086 263.5064 15.08835307118377,6917.895,95.438,540.719,538.8,0.0
50171.0,STARLINK-3286,PAYLOAD,2024-01-16 19:49:29,15.08839699,0.0001515,53.218,163.5291,112.4274,247.6879,-2.4365e-05,-6.76e-06,0.0,0 STARLINK-3286,1 50171U 21125R   24016.82603672 -.00000676  00000-0 -24365-4 0  9997,2 50171  53.2180 163.5291 0001515 112.4274 247.6879 15.08839699118411,6917.881,95.438,540.794,538.698,0.0
50171.0,STARLINK-3286,PAYLOAD,2024-01-17 14:54:07,15.08836757,0.0001475,53.2177,159.961,111.2004,248.9146,4.3227e-06,-2.19e-06,0.0,0 STARLINK-3286,1 50171U 21125R   24017.62092065 -.00000219  00000-0  43227-5 0  9995,2 50171  53.2177 159.9610 0001475 111.2004 248.9146 15.08836757118530,6917.89,95.438,540.776,538.735,0.0
50171.0,STARLINK-3286,PAYLOAD,2024-01-17 16:29:30,15.08838702,0.0001536,53.2179,159.6636,113.1962,246.9192,2.5422e-05,1.17e-06,0.0,0 STARLINK-3286,1 50171U 21125R   24017.68715890  .00000117  00000-0  25422-4 0  9991,2 50171  53.2179 159.6636 0001536 113.1962 246.9192 15.08838702118057,6917.884,95.438,540.812,538.687,0.0
50171.0,STARLINK-3286,PAYLOAD,2024-01-18 13:09:30,15.08850661,0.0001486,53.2183,155.7978,112.7298,247.3851,0.00017944,2.57e-05,0.0,0 STARLINK-3286,1 50171U 21125R   24018.54826617  .00002570  00000-0  17944-3 0  9991,2 50171  53.2183 155.7978 0001486 112.7298 247.3851 15.08850661118188,6917.848,95.437,540.741,538.685,0.0
50171.0,STARLINK-3286,PAYLOAD,2024-01-18 14:44:53,15.08846061,0.0001486,53.2181,155.5005,109.1466,250.9687,0.00030001,4.491e-05,0.0,0 STARLINK-3286,1 50171U 21125R   24018.61450587  .00004491  00000-0  30001-3 0  9991,2 50171  53.2181 155.5005 0001486 109.1466 250.9687 15.08846061118683,6917.862,95.437,540.755,538.699,0.0
50171.0,STARLINK-3286,PAYLOAD,2024-01-18 16:20:16,15.08832418,0.0001571,53.2186,155.2031,101.9549,258.162,0.00059566,9.203e-05,0.0,0 STARLINK-3286,1 50171U 21125R   24018.68074827  .00009203  00000-0  59566-3 0  9990,2 50171  53.2186 155.2031 0001571 101.9549 258.1620 15.08832418118207,6917.904,95.438,540.855,538.682,0.0
50171.0,STARLINK-3286,PAYLOAD,2024-01-19 08:14:08,15.0883889,0.0001512,53.2185,152.2344,62.8768,297.2378,0.00011484,1.54e-05,0.0,0 STARLINK-3286,1 50171U 21125R   24019.34315658  .00001540  00000-0  11484-3 0  9997,2 50171  53.2185 152.2344 0001512  62.8768 297.2378 15.08838890118308,6917.884,95.438,540.795,538.703,0.0
50171.0,STARLINK-3286,PAYLOAD,2024-01-19 14:35:41,15.08839638,0.0001383,53.2183,151.0375,95.0002,265.1148,2.1809e-05,5.9e-07,0.0,0 STARLINK-3286,1 50171U 21125R   24019.60811922  .00000059  00000-0  21809-4 0  9998,2 50171  53.2183 151.0375 0001383  95.0002 265.1148 15.08839638118830,6917.881,95.438,540.703,538.79,0.0
50171.0,STARLINK-3286,PAYLOAD,2024-01-19 16:11:04,15.08839788,0.0001242,53.2176,150.7403,92.326,267.7874,1.8212e-05,2e-08,0.0,0 STARLINK-3286,1 50171U 21125R   24019.67435928  .00000002  00000-0  18212-4 0  9995,2 50171  53.2176 150.7403 0001242  92.3260 267.7874 15.08839788118841,6917.881,95.438,540.605,538.887,0.0
50171.0,STARLINK-3286,PAYLOAD,2024-01-20 08:04:56,15.08838262,0.0001577,53.2176,147.7754,66.267,293.8487,-0.00016514,-2.915e-05,0.0,0 STARLINK-3286,1 50171U 21125R   24020.33676971 -.00002915  00000-0 -16514-3 0  9994,2 50171  53.2176 147.7754 0001577  66.2670 293.8487 15.08838262118455,6917.886,95.438,540.842,538.66,0.0
50171.0,STARLINK-3286,PAYLOAD,2024-01-20 14:26:29,15.08836304,0.0001501,53.2175,146.5842,68.5362,291.579,-0.0001682,-2.964e-05,0.0,0 STARLINK-3286,1 50171U 21125R   24020.60173169 -.00002964  00000-0 -16820-3 0  9999,2 50171  53.2175 146.5842 0001501  68.5362 291.5790 15.08836304118984,6917.892,95.438,540.795,538.718,0.0
